STARLINK-31646          
1 59265U 24050M   26068.60946820  .00000755  00000+0  37624-4 0  9997
2 59265  53.1580 181.5497 0000905  76.7952 283.3149 15.30188574110538
TEVEL2-5                
1 63214U 25052E   26068.96660006  .00021339  00000+0  71765-3 0  9991
2 63214  97.4013 325.3677 0004700  95.3936 264.7842 15.30817434 54919
